[{"OBJECT_ID":"2006-007B","OBJECT_NAME":"EUTE 9A (HB 7A)","NORAD_CAT_ID":"28946","OBJECT_TYPE":"PAYLOAD","PERIOD":"1436.070","INCLINATION":"0.021","APOGEE":"35813.764","PERIGEE":"35758.386","ECCENTRICITY":"0.0006567","MEAN_MOTION":"1.00273645","TLE_LINE1":"1 28946U 06007B   16239.03420172  .00000059  00000-0  00000+0 0  9995","TLE_LINE2":"2 28946   0.0210 133.1060 0006567  36.6049 190.2959  1.00273645 38385","LAUNCH_DATE":"2006-03-11","LAUNCH_SITE":"FRENCH GUIANA","OWNER":"EUROPEAN TELECOMMUNICATIONS SATELLITE ORGANIZATION (EUTELSAT)","ORBIT_TYPE":"Geosynchronous","OPERATIONAL_STATUS":"Operational","satInfo":{"lng":15.057187058769241,"lat":-1.7187744059998884,"elevation":-10.245839679346522,"azimuth":299.9428129412307,"range":42845.4843372176,"height":35803.075520127735,"velocity":3.073259928993703},"x":76,"y":-276,"dx":2.9677457489369203,"dy":0.7983807117066516},{"OBJECT_ID":"2006-010A","OBJECT_NAME":"JCSAT 9","NORAD_CAT_ID":"29045","OBJECT_TYPE":"PAYLOAD","PERIOD":"1436.161","INCLINATION":"0.0207","APOGEE":"35792.260","PERIGEE":"35783.473","ECCENTRICITY":"0.0001042","MEAN_MOTION":"1.00267255","TLE_LINE1":"1 29045U 06010A   16238.81438253 -.00000356  00000-0  00000+0 0  9995","TLE_LINE2":"2 29045   0.0207 114.3116 0001042  55.6940 229.7041  1.00267255 38020","LAUNCH_DATE":"2006-04-12","LAUNCH_SITE":"SEA LAUNCH","OWNER":"JAPAN","ORBIT_TYPE":"Geosynchronous","OPERATIONAL_STATUS":"Operational","satInfo":{"lng":126.817049380689,"lat":1.88699971052767,"elevation":-6.724980809202516,"azimuth":188.18295061931101,"range":42440.17293872826,"height":35792.87992178239,"velocity":3.074606894385804},"x":240,"y":171,"dx":-1.8424945967559003,"dy":2.4613860355356754},{"OBJECT_ID":"2006-010B","OBJECT_NAME":"BLOCK DM-SL R/B","NORAD_CAT_ID":"29046","OBJECT_TYPE":"ROCKET BODY","PERIOD":"656.283","INCLINATION":"0.201","APOGEE":"35616.224","PERIGEE":"1659.860","ECCENTRICITY":"0.6786881","MEAN_MOTION":"2.19417534","TLE_LINE1":"1 29046U 06010B   16238.77614104 +.00000004 +00000-0 +49193-1 0  9999","TLE_LINE2":"2 29046 000.2010 073.5395 6786881 139.9557 356.3969 02.19417534083155","LAUNCH_DATE":"2006-04-12","LAUNCH_SITE":"SEA LAUNCH","OWNER":"SEA LAUNCH DEMO","ORBIT_TYPE":"Highly Elliptical Orbit","OPERATIONAL_STATUS":"N/A, derelict rocket body","satInfo":{"lng":-7.137125330661228,"lat":-2.1935737874201844,"elevation":-11.690427997873876,"azimuth":322.1371253306612,"range":38491.41076411836,"height":31342.443725966827,"velocity":2.278842333031494},"x":-35,"y":-249,"dx":2.2611850441987946,"dy":-0.28313349273464283},{"OBJECT_ID":"2006-012A","OBJECT_NAME":"ASTRA 1KR","NORAD_CAT_ID":"29055","OBJECT_TYPE":"PAYLOAD","PERIOD":"1436.067","INCLINATION":"0.0925","APOGEE":"35804.150","PERIGEE":"35767.872","ECCENTRICITY":"0.0004302","MEAN_MOTION":"1.00273872","TLE_LINE1":"1 29055U 06012A   16239.00535610  .00000092  00000-0  00000+0 0  9991","TLE_LINE2":"2 29055   0.0925 277.8934 0004302 277.3134 160.6126  1.00273872 37827","LAUNCH_DATE":"2006-04-20","LAUNCH_SITE":"AIR FORCE EASTERN TEST RANGE","OWNER":"SOCIÉTÉ EUROPÉENNE DES SATELLITES","ORBIT_TYPE":"Geosynchronous","OPERATIONAL_STATUS":"Operational","satInfo":{"lng":34.744648357603026,"lat":0.6282562100509275,"elevation":-7.960137522266096,"azimuth":280.255351642397,"range":42570.10178267478,"height":35784.319309714294,"velocity":3.0741876729716346},"x":170,"y":-235,"dx":2.5260605464359203,"dy":1.7520410852461807},{"OBJECT_ID":"2006-018A","OBJECT_NAME":"GOES 13","NORAD_CAT_ID":"29155","OBJECT_TYPE":"PAYLOAD","PERIOD":"1436.069","INCLINATION":"0.046","APOGEE":"35797.802","PERIGEE":"35774.299","ECCENTRICITY":"0.0002787","MEAN_MOTION":"1.00273733","TLE_LINE1":"1 29155U 06018A   16239.27664244 -.00000279  00000-0  00000+0 0  9991","TLE_LINE2":"2 29155   0.0460 247.7262 0002787 225.6544 246.6412  1.00273733 37603","LAUNCH_DATE":"2006-05-24","LAUNCH_SITE":"AIR FORCE EASTERN TEST RANGE","OWNER":"UNITED STATES OF AMERICA","ORBIT_TYPE":"Geosynchronous","OPERATIONAL_STATUS":"Operational","satInfo":{"lng":-90.91522747119265,"lat":1.9055303194958948,"elevation":-6.703265482268662,"azimuth":45.91522747119264,"range":42455.39231345259,"height":35810.33635302074,"velocity":3.0734349311729807},"x":-305,"y":4,"dx":-0.049092140509713424,"dy":-3.0730428304685957},{"OBJECT_ID":"2006-020A","OBJECT_NAME":"EUTE 113 WEST A(SATMEX 6","NORAD_CAT_ID":"29162","OBJECT_TYPE":"PAYLOAD","PERIOD":"1436.085","INCLINATION":"0.0643","APOGEE":"35798.139","PERIGEE":"35774.611","ECCENTRICITY":"0.000279","MEAN_MOTION":"1.00272574","TLE_LINE1":"1 29162U 06020A   16237.38865070 -.00000061  00000-0  00000+0 0  9991","TLE_LINE2":"2 29162   0.0643 296.2139 0002790 228.9565 194.8339  1.00272574 37535","LAUNCH_DATE":"2006-05-27","LAUNCH_SITE":"FRENCH GUIANA","OWNER":"EUROPEAN TELECOMMUNICATIONS SATELLITE ORGANIZATION (EUTELSAT)","ORBIT_TYPE":"Geosynchronous","OPERATIONAL_STATUS":"Operational","satInfo":{"lng":-104.9561014260074,"lat":0.20110281876877886,"elevation":-8.378005707361751,"azimuth":59.95610142600737,"range":42615.99593105889,"height":35783.33483980026,"velocity":3.0747556449761735},"x":-294,"y":73,"dx":-0.7935295586940139,"dy":-2.9705947410900273},{"OBJECT_ID":"2006-020B","OBJECT_NAME":"THAICOM 5","NORAD_CAT_ID":"29163","OBJECT_TYPE":"PAYLOAD","PERIOD":"1436.087","INCLINATION":"0.047","APOGEE":"35805.822","PERIGEE":"35767.005","ECCENTRICITY":"0.0004603","MEAN_MOTION":"1.00272437","TLE_LINE1":"1 29163U 06020B   16238.92584662 -.00000149  00000-0  00000+0 0  9995","TLE_LINE2":"2 29163   0.0470 280.8243 0004603 296.2147 169.3569  1.00272437 37617","LAUNCH_DATE":"2006-05-27","LAUNCH_SITE":"FRENCH GUIANA","OWNER":"THAILAND","ORBIT_TYPE":"Geosynchronous","OPERATIONAL_STATUS":"Operational","satInfo":{"lng":71.92779816070224,"lat":-0.6947153519206102,"elevation":-9.249144966373622,"azimuth":243.07220183929778,"range":42730.65528198517,"height":35800.064288036985,"velocity":3.0736813761254553},"x":285,"y":-89,"dx":0.9535027809057485,"dy":2.922045456310609},{"OBJECT_ID":"2006-023A","OBJECT_NAME":"GALAXY 16","NORAD_CAT_ID":"29236","OBJECT_TYPE":"PAYLOAD","PERIOD":"1436.092","INCLINATION":"0.0488","APOGEE":"35797.863","PERIGEE":"35775.170","ECCENTRICITY":"0.0002691","MEAN_MOTION":"1.00272071","TLE_LINE1":"1 29236U 06023A   16238.60920390 -.00000153 +00000-0 +00000-0 0  9992","TLE_LINE2":"2 29236 000.0488 246.8559 0002691 279.0743 288.6636 01.00272071037305","LAUNCH_DATE":"2006-06-18","LAUNCH_SITE":"SEA LAUNCH","OWNER":"UNITED STATES OF AMERICA","ORBIT_TYPE":"Geosynchronous","OPERATIONAL_STATUS":"Operational","satInfo":{"lng":-104.70265305662511,"lat":1.6742970787647788,"elevation":-6.934181194269972,"azimuth":59.7026530566251,"range":42461.15125923134,"height":35790.416838281875,"velocity":3.0745106634620214},"x":-294,"y":72,"dx":-0.7803192097417543,"dy":-2.9738388911724325},{"OBJECT_ID":"2006-023B","OBJECT_NAME":"BLOCK DM-SL R/B","NORAD_CAT_ID":"29237","OBJECT_TYPE":"ROCKET BODY","PERIOD":"667.012","INCLINATION":"0.8927","APOGEE":"35635.738","PERIGEE":"2184.193","ECCENTRICITY":"0.6614088","MEAN_MOTION":"2.15887969","TLE_LINE1":"1 29237U 06023B   16238.62226272 -.00000029 +00000-0 +00000-0 0  9995","TLE_LINE2":"2 29237 000.8927 322.4846 6614088 266.6927 243.8886 02.15887969080306","LAUNCH_DATE":"2006-06-18","LAUNCH_SITE":"SEA LAUNCH","OWNER":"SEA LAUNCH DEMO","ORBIT_TYPE":"Highly Elliptical Orbit","OPERATIONAL_STATUS":"N/A, derelict rocket body","satInfo":{"lng":-83.09241618722677,"lat":-0.47114330482780686,"elevation":-12.01481367562537,"azimuth":38.092416187226746,"range":31764.553897213296,"height":24691.62562441763,"velocity":3.145744677424499},"x":-209,"y":-24,"dx":0.378333180965345,"dy":-3.1229110745785267},{"OBJECT_ID":"2006-032A","OBJECT_NAME":"EUTE HOT BIRD 13B (HB 8)","NORAD_CAT_ID":"29270","OBJECT_TYPE":"PAYLOAD","PERIOD":"1436.075","INCLINATION":"0.0674","APOGEE":"35793.920","PERIGEE":"35778.429","ECCENTRICITY":"0.0001837","MEAN_MOTION":"1.00273291","TLE_LINE1":"1 29270U 06032A   16239.04834281  .00000059  00000-0  00000+0 0  9995","TLE_LINE2":"2 29270   0.0674  18.0905 0001837 137.8247 209.1736  1.00273291 36948","LAUNCH_DATE":"2006-08-04","LAUNCH_SITE":"TYURATAM MISSILE AND SPACE COMPLEX","OWNER":"EUROPEAN TELECOMMUNICATIONS SATELLITE ORGANIZATION (EUTELSAT)","ORBIT_TYPE":"Geosynchronous","OPERATIONAL_STATUS":"Operational","satInfo":{"lng":14.956999477111582,"lat":0.4627219055054786,"elevation":-8.121870277860422,"azimuth":300.0430005228884,"range":42589.1570512653,"height":35785.21598275739,"velocity":3.074565901290185},"x":76,"y":-276,"dx":2.970398987851999,"dy":0.793527147830587},{"OBJECT_ID":"2006-033A","OBJECT_NAME":"JCSAT 10","NORAD_CAT_ID":"29272","OBJECT_TYPE":"PAYLOAD","PERIOD":"1436.120","INCLINATION":"0.037","APOGEE":"35795.336","PERIGEE":"35778.765","ECCENTRICITY":"0.0001965","MEAN_MOTION":"1.00270165","TLE_LINE1":"1 29272U 06033A   16238.81438253 -.00000372  00000-0  00000+0 0  9990","TLE_LINE2":"2 29272   0.0370 300.5483 0001965 208.5065 246.6055  1.00270165 36845","LAUNCH_DATE":"2006-08-11","LAUNCH_SITE":"FRENCH GUIANA","OWNER":"JAPAN","ORBIT_TYPE":"Geosynchronous","OPERATIONAL_STATUS":"Operational","satInfo":{"lng":109.55799898983643,"lat":-1.187361364003102,"elevation":-9.729260426153742,"azimuth":205.44200101016358,"range":42784.3587621095,"height":35799.91429220183,"velocity":3.0744581052954283},"x":283,"y":95,"dx":-1.029208358933492,"dy":2.8970714169861576}]